{"fetched_at":"2026-03-30T13:17:50Z","count":15418,"tles":[{"name":"STARLINK-32406","line1":"1 61545U 24184P   26087.81309755  .00001830  00000+0  73902-4 0  9997","line2":"2 61545  53.1593 285.2024 0001219  78.9153 281.1984 15.30196264 81434","category":"Starlink"}]}